{
  "links" : {
    "next" : "https://api.nasa.gov/neo/rest/v1/feed?start_date=2012-07-23&end_date=2012-07-23&detailed=true&api_key=t0TVs3DtDT2H8Oy2Zy8m2eVrNsAVKAexjcZXUckd",
    "prev" : "https://api.nasa.gov/neo/rest/v1/feed?start_date=2012-07-21&end_date=2012-07-21&detailed=true&api_key=t0TVs3DtDT2H8Oy2Zy8m2eVrNsAVKAexjcZXUckd",
    "self" : "https://api.nasa.gov/neo/rest/v1/feed?start_date=2012-07-22&end_date=2012-07-22&detailed=true&api_key=t0TVs3DtDT2H8Oy2Zy8m2eVrNsAVKAexjcZXUckd"
  },
  "element_count" : 8,
  "near_earth_objects" : {
    "2012-07-22" : [ {
      "links" : {
        "self" : "https://api.nasa.gov/neo/rest/v1/neo/2138175?api_key=t0TVs3DtDT2H8Oy2Zy8m2eVrNsAVKAexjcZXUckd"
      },
      "neo_reference_id" : "2138175",
      "name" : "138175 (2000 EE104)",
      "nasa_jpl_url" : "http://ssd.jpl.nasa.gov/sbdb.cgi?sstr=2138175",
      "absolute_magnitude_h" : 20.3,
      "estimated_diameter" : {
        "kilometers" : {
          "estimated_diameter_min" : 0.2315021222,
          "estimated_diameter_max" : 0.5176544822
        },
        "meters" : {
          "estimated_diameter_min" : 231.5021222103,
          "estimated_diameter_max" : 517.6544821978
        },
        "miles" : {
          "estimated_diameter_min" : 0.1438487052,
          "estimated_diameter_max" : 0.3216554833
        },
        "feet" : {
          "estimated_diameter_min" : 759.5214226325,
          "estimated_diameter_max" : 1698.3415313737
        }
      },
      "is_potentially_hazardous_asteroid" : true,
      "close_approach_data" : [ {
        "close_approach_date" : "2012-07-22",
        "epoch_date_close_approach" : 1342940400000,
        "relative_velocity" : {
          "kilometers_per_second" : "10.8231704258",
          "kilometers_per_hour" : "38963.4135328944",
          "miles_per_hour" : "24210.349925481"
        },
        "miss_distance" : {
          "astronomical" : "0.3144881375",
          "lunar" : "122.3358840942",
          "kilometers" : "47046756",
          "miles" : "29233500"
        },
        "orbiting_body" : "Earth"
      } ],
      "orbital_data" : {
        "orbit_id" : "157",
        "orbit_determination_date" : "2017-04-06 09:27:49",
        "orbit_uncertainty" : "0",
        "minimum_orbit_intersection" : ".00862379",
        "jupiter_tisserand_invariant" : "6.015",
        "epoch_osculation" : "2456013.5",
        "eccentricity" : ".293365193266127",
        "semi_major_axis" : "1.004809248733997",
        "inclination" : "5.24210754091877",
        "ascending_node_longitude" : "25.90801698237798",
        "orbital_period" : "367.8949806981167",
        "perihelion_distance" : ".7100331892835565",
        "perihelion_argument" : "280.8672912659017",
        "aphelion_distance" : "1.299585308184438",
        "perihelion_time" : "2456135.228653495445",
        "mean_anomaly" : "240.8836283245749",
        "mean_motion" : ".9785401239148868",
        "equinox" : "J2000"
      }
    }, {
      "links" : {
        "self" : "https://api.nasa.gov/neo/rest/v1/neo/2153243?api_key=t0TVs3DtDT2H8Oy2Zy8m2eVrNsAVKAexjcZXUckd"
      },
      "neo_reference_id" : "2153243",
      "name" : "153243 (2001 AU47)",
      "nasa_jpl_url" : "http://ssd.jpl.nasa.gov/sbdb.cgi?sstr=2153243",
      "absolute_magnitude_h" : 17.5,
      "estimated_diameter" : {
        "kilometers" : {
          "estimated_diameter_min" : 0.8405334021,
          "estimated_diameter_max" : 1.8794898244
        },
        "meters" : {
          "estimated_diameter_min" : 840.5334020728,
          "estimated_diameter_max" : 1879.4898243938
        },
        "miles" : {
          "estimated_diameter_min" : 0.5222830806,
          "estimated_diameter_max" : 1.1678604717
        },
        "feet" : {
          "estimated_diameter_min" : 2757.6556068564,
          "estimated_diameter_max" : 6166.3053954643
        }
      },
      "is_potentially_hazardous_asteroid" : false,
      "close_approach_data" : [ {
        "close_approach_date" : "2012-07-22",
        "epoch_date_close_approach" : 1342940400000,
        "relative_velocity" : {
          "kilometers_per_second" : "28.7498624522",
          "kilometers_per_hour" : "103499.5048277897",
          "miles_per_hour" : "64310.5673192452"
        },
        "miss_distance" : {
          "astronomical" : "0.4042364071",
          "lunar" : "157.2479553223",
          "kilometers" : "60472908",
          "miles" : "37576120"
        },
        "orbiting_body" : "Earth"
      } ],
      "orbital_data" : {
        "orbit_id" : "66",
        "orbit_determination_date" : "2017-04-06 09:27:07",
        "orbit_uncertainty" : "0",
        "minimum_orbit_intersection" : ".400682",
        "jupiter_tisserand_invariant" : "4.691",
        "epoch_osculation" : "2458000.5",
        "eccentricity" : ".5306034731473335",
        "semi_major_axis" : "1.298893000474263",
        "inclination" : "35.97602754388168",
        "ascending_node_longitude" : "311.9160934019462",
        "orbital_period" : "540.7026419002025",
        "perihelion_distance" : ".6096958631758581",
        "perihelion_argument" : "9.362225389508202",
        "aphelion_distance" : "1.988090137772668",
        "perihelion_time" : "2457761.923116825562",
        "mean_anomaly" : "158.8445686911404",
        "mean_motion" : ".6658003347918636",
        "equinox" : "J2000"
      }
    }, {
      "links" : {
        "self" : "https://api.nasa.gov/neo/rest/v1/neo/2153958?api_key=t0TVs3DtDT2H8Oy2Zy8m2eVrNsAVKAexjcZXUckd"
      },
      "neo_reference_id" : "2153958",
      "name" : "153958 (2002 AM31)",
      "nasa_jpl_url" : "http://ssd.jpl.nasa.gov/sbdb.cgi?sstr=2153958",
      "absolute_magnitude_h" : 18.3,
      "estimated_diameter" : {
        "kilometers" : {
          "estimated_diameter_min" : 0.5815070396,
          "estimated_diameter_max" : 1.30028927
        },
        "meters" : {
          "estimated_diameter_min" : 581.5070396458,
          "estimated_diameter_max" : 1300.2892700427
        },
        "miles" : {
          "estimated_diameter_min" : 0.3613316107,
          "estimated_diameter_max" : 0.807962044
        },
        "feet" : {
          "estimated_diameter_min" : 1907.8315559515,
          "estimated_diameter_max" : 4266.0410487267
        }
      },
      "is_potentially_hazardous_asteroid" : true,
      "close_approach_data" : [ {
        "close_approach_date" : "2012-07-22",
        "epoch_date_close_approach" : 1342940400000,
        "relative_velocity" : {
          "kilometers_per_second" : "9.5522269359",
          "kilometers_per_hour" : "34388.0169692062",
          "miles_per_hour" : "21367.3764328937"
        },
        "miss_distance" : {
          "astronomical" : "0.0351448434",
          "lunar" : "13.6713438034",
          "kilometers" : "5257593.5",
          "miles" : "3266917.25"
        },
        "orbiting_body" : "Earth"
      } ],
      "orbital_data" : {
        "orbit_id" : "106",
        "orbit_determination_date" : "2017-04-06 09:27:02",
        "orbit_uncertainty" : "0",
        "minimum_orbit_intersection" : ".0317549",
        "jupiter_tisserand_invariant" : "4.073",
        "epoch_osculation" : "2458000.5",
        "eccentricity" : ".4516496408624088",
        "semi_major_axis" : "1.70303006690484",
        "inclination" : "4.644674448098355",
        "ascending_node_longitude" : "144.3975656065765",
        "orbital_period" : "811.7679489911183",
        "perihelion_distance" : ".933857148809385",
        "perihelion_argument" : "197.9339708229552",
        "aphelion_distance" : "2.472202985000295",
        "perihelion_time" : "2457788.672576467159",
        "mean_anomaly" : "93.94048208801249",
        "mean_motion" : ".4434764891215714",
        "equinox" : "J2000"
      }
    } ]
  }
}